KUIPER-00071            
1 64818U 25151C   25211.91022374  .00015163  00000+0  44060-3 0  9992
2 64818  51.8776 217.0077 0005273 189.7140 170.3745 15.35658282  2244
KUIPER-00072            
1 64819U 25151D   25212.16668981 -.00003617  00000+0 -92960-4 0  9997
2 64819  51.8766 215.8022 0004718 200.9563 120.0222 15.35287097  2275
KUIPER-00073            
1 64820U 25151E   25211.91239476  .00015077  00000+0  44191-3 0  9997
2 64820  51.8781 217.0234 0005025 196.9186 163.1633 15.35390959  3424
KUIPER-00074            
1 64821U 25151F   25212.17220022  .00014700  00000+0  42982-3 0  9992
2 64821  51.8767 215.7573 0005144 199.2406 160.8387 15.35487722  2281
KUIPER-00075            
1 64822U 25151G   25212.17141735  .00023994  00000+0  69259-3 0  9997
2 64822  51.8778 215.7593 0004973 189.5443 170.5449 15.35543908  2284
KUIPER-00076            
1 64823U 25151H   25212.17308039  .00014208  00000+0  41757-3 0  9991
2 64823  51.8767 215.7637 0004903 199.2429 160.8373 15.35357266  2285
KUIPER-00077            
1 64824U 25151J   25211.91442579  .00018059  00000+0  53029-3 0  9994
2 64824  51.8782 217.0359 0005441 205.1503 154.9218 15.35189977  2247
KUIPER-00078            
1 64825U 25151K   25211.91411704  .00014126  00000+0  41697-3 0  9990
2 64825  51.8773 217.0304 0005648 208.0055 152.0628 15.35223501  2247
