<?xml version="1.0" encoding="UTF-8"?>
<ndm xmlns:xsi="http://www.w3.org/2001/XMLSchema-instance" xsi:noNamespaceSchemaLocation="https://sanaregistry.org/r/ndmxml_unqualified/ndmxml-2.0.0-master-2.0.xsd">
<omm id="CCSDS_OMM_VERS" version="2.0">
<header><CREATION_DATE/><ORIGINATOR/></header><body><segment><metadata><OBJECT_NAME>KUIPER-00071</OBJECT_NAME><OBJECT_ID>2025-151C</OBJECT_ID><CENTER_NAME>EARTH</CENTER_NAME><REF_FRAME>TEME</REF_FRAME><TIME_SYSTEM>UTC</TIME_SYSTEM><MEAN_ELEMENT_THEORY>SGP4</MEAN_ELEMENT_THEORY></metadata><data><meanElements><EPOCH>2025-07-30T21:50:43.331136</EPOCH><MEAN_MOTION>15.35658282</MEAN_MOTION><ECCENTRICITY>.0005273</ECCENTRICITY><INCLINATION>51.8776</INCLINATION><RA_OF_ASC_NODE>217.0077</RA_OF_ASC_NODE><ARG_OF_PERICENTER>189.7140</ARG_OF_PERICENTER><MEAN_ANOMALY>170.3745</MEAN_ANOMALY></meanElements><tleParameters><EPHEMERIS_TYPE>0</EPHEMERIS_TYPE><CLASSIFICATION_TYPE>U</CLASSIFICATION_TYPE><NORAD_CAT_ID>64818</NORAD_CAT_ID><ELEMENT_SET_NO>999</ELEMENT_SET_NO><REV_AT_EPOCH>224</REV_AT_EPOCH><BSTAR>.4406E-3</BSTAR><MEAN_MOTION_DOT>.15163E-3</MEAN_MOTION_DOT><MEAN_MOTION_DDOT>0</MEAN_MOTION_DDOT></tleParameters></data></segment></body></omm>
<omm id="CCSDS_OMM_VERS" version="2.0">
<header><CREATION_DATE/><ORIGINATOR/></header><body><segment><metadata><OBJECT_NAME>KUIPER-00072</OBJECT_NAME><OBJECT_ID>2025-151D</OBJECT_ID><CENTER_NAME>EARTH</CENTER_NAME><REF_FRAME>TEME</REF_FRAME><TIME_SYSTEM>UTC</TIME_SYSTEM><MEAN_ELEMENT_THEORY>SGP4</MEAN_ELEMENT_THEORY></metadata><data><meanElements><EPOCH>2025-07-31T04:00:01.999584</EPOCH><MEAN_MOTION>15.35287097</MEAN_MOTION><ECCENTRICITY>.0004718</ECCENTRICITY><INCLINATION>51.8766</INCLINATION><RA_OF_ASC_NODE>215.8022</RA_OF_ASC_NODE><ARG_OF_PERICENTER>200.9563</ARG_OF_PERICENTER><MEAN_ANOMALY>120.0222</MEAN_ANOMALY></meanElements><tleParameters><EPHEMERIS_TYPE>0</EPHEMERIS_TYPE><CLASSIFICATION_TYPE>U</CLASSIFICATION_TYPE><NORAD_CAT_ID>64819</NORAD_CAT_ID><ELEMENT_SET_NO>999</ELEMENT_SET_NO><REV_AT_EPOCH>227</REV_AT_EPOCH><BSTAR>-.9296E-4</BSTAR><MEAN_MOTION_DOT>-.3617E-4</MEAN_MOTION_DOT><MEAN_MOTION_DDOT>0</MEAN_MOTION_DDOT></tleParameters></data></segment></body></omm>
<omm id="CCSDS_OMM_VERS" version="2.0">
<header><CREATION_DATE/><ORIGINATOR/></header><body><segment><metadata><OBJECT_NAME>KUIPER-00073</OBJECT_NAME><OBJECT_ID>2025-151E</OBJECT_ID><CENTER_NAME>EARTH</CENTER_NAME><REF_FRAME>TEME</REF_FRAME><TIME_SYSTEM>UTC</TIME_SYSTEM><MEAN_ELEMENT_THEORY>SGP4</MEAN_ELEMENT_THEORY></metadata><data><meanElements><EPOCH>2025-07-30T21:53:50.907264</EPOCH><MEAN_MOTION>15.35390959</MEAN_MOTION><ECCENTRICITY>.0005025</ECCENTRICITY><INCLINATION>51.8781</INCLINATION><RA_OF_ASC_NODE>217.0234</RA_OF_ASC_NODE><ARG_OF_PERICENTER>196.9186</ARG_OF_PERICENTER><MEAN_ANOMALY>163.1633</MEAN_ANOMALY></meanElements><tleParameters><EPHEMERIS_TYPE>0</EPHEMERIS_TYPE><CLASSIFICATION_TYPE>U</CLASSIFICATION_TYPE><NORAD_CAT_ID>64820</NORAD_CAT_ID><ELEMENT_SET_NO>999</ELEMENT_SET_NO><REV_AT_EPOCH>342</REV_AT_EPOCH><BSTAR>.44191E-3</BSTAR><MEAN_MOTION_DOT>.15077E-3</MEAN_MOTION_DOT><MEAN_MOTION_DDOT>0</MEAN_MOTION_DDOT></tleParameters></data></segment></body></omm>
<omm id="CCSDS_OMM_VERS" version="2.0">
<header><CREATION_DATE/><ORIGINATOR/></header><body><segment><metadata><OBJECT_NAME>KUIPER-00074</OBJECT_NAME><OBJECT_ID>2025-151F</OBJECT_ID><CENTER_NAME>EARTH</CENTER_NAME><REF_FRAME>TEME</REF_FRAME><TIME_SYSTEM>UTC</TIME_SYSTEM><MEAN_ELEMENT_THEORY>SGP4</MEAN_ELEMENT_THEORY></metadata><data><meanElements><EPOCH>2025-07-31T04:07:58.099008</EPOCH><MEAN_MOTION>15.35487722</MEAN_MOTION><ECCENTRICITY>.0005144</ECCENTRICITY><INCLINATION>51.8767</INCLINATION><RA_OF_ASC_NODE>215.7573</RA_OF_ASC_NODE><ARG_OF_PERICENTER>199.2406</ARG_OF_PERICENTER><MEAN_ANOMALY>160.8387</MEAN_ANOMALY></meanElements><tleParameters><EPHEMERIS_TYPE>0</EPHEMERIS_TYPE><CLASSIFICATION_TYPE>U</CLASSIFICATION_TYPE><NORAD_CAT_ID>64821</NORAD_CAT_ID><ELEMENT_SET_NO>999</ELEMENT_SET_NO><REV_AT_EPOCH>228</REV_AT_EPOCH><BSTAR>.42982E-3</BSTAR><MEAN_MOTION_DOT>.147E-3</MEAN_MOTION_DOT><MEAN_MOTION_DDOT>0</MEAN_MOTION_DDOT></tleParameters></data></segment></body></omm>
<omm id="CCSDS_OMM_VERS" version="2.0">
<header><CREATION_DATE/><ORIGINATOR/></header><body><segment><metadata><OBJECT_NAME>KUIPER-00075</OBJECT_NAME><OBJECT_ID>2025-151G</OBJECT_ID><CENTER_NAME>EARTH</CENTER_NAME><REF_FRAME>TEME</REF_FRAME><TIME_SYSTEM>UTC</TIME_SYSTEM><MEAN_ELEMENT_THEORY>SGP4</MEAN_ELEMENT_THEORY></metadata><data><meanElements><EPOCH>2025-07-31T04:06:50.459040</EPOCH><MEAN_MOTION>15.35543908</MEAN_MOTION><ECCENTRICITY>.0004973</ECCENTRICITY><INCLINATION>51.8778</INCLINATION><RA_OF_ASC_NODE>215.7593</RA_OF_ASC_NODE><ARG_OF_PERICENTER>189.5443</ARG_OF_PERICENTER><MEAN_ANOMALY>170.5449</MEAN_ANOMALY></meanElements><tleParameters><EPHEMERIS_TYPE>0</EPHEMERIS_TYPE><CLASSIFICATION_TYPE>U</CLASSIFICATION_TYPE><NORAD_CAT_ID>64822</NORAD_CAT_ID><ELEMENT_SET_NO>999</ELEMENT_SET_NO><REV_AT_EPOCH>228</REV_AT_EPOCH><BSTAR>.69259E-3</BSTAR><MEAN_MOTION_DOT>.23994E-3</MEAN_MOTION_DOT><MEAN_MOTION_DDOT>0</MEAN_MOTION_DDOT></tleParameters></data></segment></body></omm>
<omm id="CCSDS_OMM_VERS" version="2.0">
<header><CREATION_DATE/><ORIGINATOR/></header><body><segment><metadata><OBJECT_NAME>KUIPER-00076</OBJECT_NAME><OBJECT_ID>2025-151H</OBJECT_ID><CENTER_NAME>EARTH</CENTER_NAME><REF_FRAME>TEME</REF_FRAME><TIME_SYSTEM>UTC</TIME_SYSTEM><MEAN_ELEMENT_THEORY>SGP4</MEAN_ELEMENT_THEORY></metadata><data><meanElements><EPOCH>2025-07-31T04:09:14.145696</EPOCH><MEAN_MOTION>15.35357266</MEAN_MOTION><ECCENTRICITY>.0004903</ECCENTRICITY><INCLINATION>51.8767</INCLINATION><RA_OF_ASC_NODE>215.7637</RA_OF_ASC_NODE><ARG_OF_PERICENTER>199.2429</ARG_OF_PERICENTER><MEAN_ANOMALY>160.8373</MEAN_ANOMALY></meanElements><tleParameters><EPHEMERIS_TYPE>0</EPHEMERIS_TYPE><CLASSIFICATION_TYPE>U</CLASSIFICATION_TYPE><NORAD_CAT_ID>64823</NORAD_CAT_ID><ELEMENT_SET_NO>999</ELEMENT_SET_NO><REV_AT_EPOCH>228</REV_AT_EPOCH><BSTAR>.41757E-3</BSTAR><MEAN_MOTION_DOT>.14208E-3</MEAN_MOTION_DOT><MEAN_MOTION_DDOT>0</MEAN_MOTION_DDOT></tleParameters></data></segment></body></omm>
<omm id="CCSDS_OMM_VERS" version="2.0">
<header><CREATION_DATE/><ORIGINATOR/></header><body><segment><metadata><OBJECT_NAME>KUIPER-00077</OBJECT_NAME><OBJECT_ID>2025-151J</OBJECT_ID><CENTER_NAME>EARTH</CENTER_NAME><REF_FRAME>TEME</REF_FRAME><TIME_SYSTEM>UTC</TIME_SYSTEM><MEAN_ELEMENT_THEORY>SGP4</MEAN_ELEMENT_THEORY></metadata><data><meanElements><EPOCH>2025-07-30T21:56:46.388256</EPOCH><MEAN_MOTION>15.35189977</MEAN_MOTION><ECCENTRICITY>.0005441</ECCENTRICITY><INCLINATION>51.8782</INCLINATION><RA_OF_ASC_NODE>217.0359</RA_OF_ASC_NODE><ARG_OF_PERICENTER>205.1503</ARG_OF_PERICENTER><MEAN_ANOMALY>154.9218</MEAN_ANOMALY></meanElements><tleParameters><EPHEMERIS_TYPE>0</EPHEMERIS_TYPE><CLASSIFICATION_TYPE>U</CLASSIFICATION_TYPE><NORAD_CAT_ID>64824</NORAD_CAT_ID><ELEMENT_SET_NO>999</ELEMENT_SET_NO><REV_AT_EPOCH>224</REV_AT_EPOCH><BSTAR>.53029E-3</BSTAR><MEAN_MOTION_DOT>.18059E-3</MEAN_MOTION_DOT><MEAN_MOTION_DDOT>0</MEAN_MOTION_DDOT></tleParameters></data></segment></body></omm>
<omm id="CCSDS_OMM_VERS" version="2.0">
<header><CREATION_DATE/><ORIGINATOR/></header><body><segment><metadata><OBJECT_NAME>KUIPER-00078</OBJECT_NAME><OBJECT_ID>2025-151K</OBJECT_ID><CENTER_NAME>EARTH</CENTER_NAME><REF_FRAME>TEME</REF_FRAME><TIME_SYSTEM>UTC</TIME_SYSTEM><MEAN_ELEMENT_THEORY>SGP4</MEAN_ELEMENT_THEORY></metadata><data><meanElements><EPOCH>2025-07-30T21:56:19.712256</EPOCH><MEAN_MOTION>15.35223501</MEAN_MOTION><ECCENTRICITY>.0005648</ECCENTRICITY><INCLINATION>51.8773</INCLINATION><RA_OF_ASC_NODE>217.0304</RA_OF_ASC_NODE><ARG_OF_PERICENTER>208.0055</ARG_OF_PERICENTER><MEAN_ANOMALY>152.0628</MEAN_ANOMALY></meanElements><tleParameters><EPHEMERIS_TYPE>0</EPHEMERIS_TYPE><CLASSIFICATION_TYPE>U</CLASSIFICATION_TYPE><NORAD_CAT_ID>64825</NORAD_CAT_ID><ELEMENT_SET_NO>999</ELEMENT_SET_NO><REV_AT_EPOCH>224</REV_AT_EPOCH><BSTAR>.41697E-3</BSTAR><MEAN_MOTION_DOT>.14126E-3</MEAN_MOTION_DOT><MEAN_MOTION_DDOT>0</MEAN_MOTION_DDOT></tleParameters></data></segment></body></omm>

</ndm>
